STARLINK-30494          
1 57970U 23151G   26068.36049035 -.00001272  00000+0 -35691-4 0  9993
2 57970  43.0027 192.4566 0001155 241.5536 118.5200 15.28417441137406
STARLINK-33745          
1 63714U 25087T   26068.69642497  .00029078  00000+0  99012-3 0  9991
2 63714  53.1584 219.3082 0000961  67.1879 292.9223 15.30197417 49200
